ABS-4 (MOBISAT-1)       
1 28184U 04007A   17064.72235660  .00000017  00000-0  00000-0 0  9991
2 28184   0.0206 238.0239 0001585 105.8294 140.8056  1.00272458 18347
EUTELSAT 7A             
1 28187U 04008A   17064.89835947  .00000023  00000-0  00000-0 0  9994
2 28187   0.0664 345.6151 0002948 351.3829 157.2133  1.00270427 47391
DIRECTV 7S              
1 28238U 04016A   17065.53551983 -.00000025  00000-0  00000+0 0  9999
2 28238   0.0171 328.7491 0003124  22.6719 246.7199  1.00272056 47074
AMC-11 (GE-11)          
1 28252U 04017A   17064.61645347  .00000046  00000-0  00000-0 0  9995
2 28252   0.0577 301.5295 0002763  46.0609 266.8475  1.00271307 46940
INTELSAT 10-02          
1 28358U 04022A   17065.29448258 -.00000037  00000-0  00000+0 0  9995
2 28358   0.0136 150.1421 0001102 122.8043 356.2805  1.00272742 46639
APSTAR 5 (TELSTAR 18)   
1 28364U 04024A   17065.48430010 -.00000320  00000-0  00000+0 0  9997
2 28364   0.0465 271.8111 0002787  76.5939 128.3250  1.00272570 46560
ANIK F2                 
1 28378U 04027A   17064.63655991 -.00000073  00000-0  00000+0 0  9993
2 28378   0.0267  26.4365 0000231 245.5531   9.6389  1.00271602 46354
AMAZONAS 1              
1 28393U 04031A   17065.17748483 -.00000271  00000-0  00000+0 0  9994
2 28393   1.5378  84.2251 0005025 263.0772 204.4743  1.00270678 46131
AMC-15                  
1 28446U 04041A   17064.60603781 -.00000112  00000-0  00000-0 0  9997
2 28446   0.0536 305.2053 0002355  41.2134 290.2076  1.00271870 45391
AMC-16                  
1 28472U 04048A   17064.59701420 -.00000229  00000-0  00000-0 0  9999
2 28472   0.0522 304.5930 0002441  31.1783 317.6662  1.00271597 44766
NSS-10 (AMC-12)         
1 28526U 05003A   17065.17794865 -.00000276  00000-0  00000+0 0  9992
2 28526   0.0586 297.2503 0002843  43.7252 209.7083  1.00271766 44324
XTAR-EUR                
1 28542U 05005A   17064.46557076  .00000128  00000-0  00000-0 0  9990
2 28542   0.0224 247.6543 0003279 100.6468  11.6665  1.00271333 44214
XM-3 (RHYTHM)           
1 28626U 05008A   17065.40950762 -.00000231  00000-0  00000+0 0  9995
2 28626   0.0081 341.9254 0000271 325.0422 279.6423  1.00270796 44071
INMARSAT 4-F1           
1 28628U 05009A   17065.17548718 -.00000284  00000-0  00000+0 0  9994
2 28628   2.8612  10.5410 0003166 336.0547  24.1481  1.00270887 43686
APSTAR 6                
1 28638U 05012A   17065.48211615 -.00000344  00000-0  00000+0 0  9993
2 28638   0.0266 108.2242 0001781 237.4384 126.2754  1.00269989 68421
SPACEWAY 1              
1 28644U 05015A   17065.54095512 -.00000129  00000-0  00000+0 0  9997
2 28644   0.0393 323.5411 0000289 355.9258 296.7871  1.00271508 43524
DIRECTV 8               
1 28659U 05019A   17063.82801557 -.00000137  00000-0  00000+0 0  9999
2 28659   0.0120 183.7517 0003530 166.8560   9.3856  1.00270455 43181
GALAXY 28 (G-28)        
1 28702U 05022A   17065.53171021 -.00000211  00000-0  00000+0 0  9991
2 28702   0.0140 112.6046 0001645 277.3896 236.8339  1.00271514 42836
EXPRESS-AM3             
1 28707U 05023A   17064.95308830 -.00000346  00000-0  00000+0 0  9991
2 28707   0.0072 169.8510 0001155 187.1171 252.9844  1.00270755 42853
THAICOM 4               
1 28786U 05028A   17064.74489519 -.00000386  00000-0  00000+0 0  9998
2 28786   0.0196 136.3929 0002267 201.0953 213.7912  1.00271440 42324
GALAXY 14 (G-14)        
1 28790U 05030A   17065.13989170  .00000012  00000-0  00000+0 0  9993
2 28790   0.0436 277.6236 0002567  57.1403 114.6248  1.00271209 42312
ANIK F1R                
1 28868U 05036A   17064.55673263 -.00000097  00000-0  00000+0 0  9997
2 28868   0.0176 115.8603 0002890 234.1127 266.6261  1.00270479 42152
GALAXY 15 (G-15)        
1 28884U 05041A   17064.61082300  .00000055  00000-0  00000+0 0  9997
2 28884   0.0460 281.1584 0001935  79.9433 249.3009  1.00271067 41628
SYRACUSE 3A             
1 28885U 05041B   17065.15527227  .00000104  00000-0  00000+0 0  9995
2 28885   0.0221 111.7773 0002624 240.2107 274.9602  1.00274041 41739
INMARSAT 4-F2           
1 28899U 05044A   17065.52718815 -.00000013  00000-0  00000+0 0  9999
2 28899   2.5533  10.3449 0003013 337.3430  70.4184  1.00272154 41514
TELKOM 2                
1 28902U 05046A   17065.48379699 -.00000389  00000-0  00000+0 0  9990
2 28902   0.0156 184.3851 0001876 181.5950  90.5729  1.00272717 41257
SPACEWAY 2              
1 28903U 05046B   17065.49254716 -.00000151  00000-0  00000+0 0  9991
2 28903   0.0351 357.1246 0000572 213.0325  32.4722  1.00263237 41505
INSAT-4A                
1 28911U 05049A   17065.31307211 -.00000191  00000-0  00000+0 0  9997
2 28911   0.0118 164.2785 0005879 144.7664  50.8762  1.00272767 41103
METEOSAT-9 (MSG-2)      
1 28912U 05049B   17065.16309872  .00000036  00000-0  00000+0 0  9993
2 28912   2.0030  70.5879 0000161  52.6952 108.7362  1.00270740 41083
EUTELSAT 172A (GE-23)   
1 28924U 05052A   17064.68915983 -.00000030  00000-0  00000-0 0  9998
2 28924   0.0695  15.6329 0006230 327.7370 240.3073  1.00272136 18351
ECHOSTAR 10             
1 28935U 06003A   17065.55487696 -.00000082  00000-0  00000+0 0  9995
2 28935   0.0510 297.9145 0001388  74.9313 241.1570  1.00270997 40525
HIMAWARI-7 (MTSAT-2)    
1 28937U 06004A   17065.48448306 -.00000270  00000-0  00000+0 0  9994
2 28937   0.0182 121.6794 0003906 230.5367 131.5634  1.00269432 40369
SPAINSAT                
1 28945U 06007A   17064.62891224 -.00000240  00000-0  00000+0 0  9999
2 28945   0.0376 233.1610 0003709  81.8673  44.9167  1.00270676 40233
EUTELSAT HOT BIRD 13E   
1 28946U 06007B   17064.50991363  .00000063  00000-0  00000+0 0  9994
2 28946   0.0517 247.3365 0002209  76.9403  35.6837  1.00271128 40307
JCSAT-5A                
1 29045U 06010A   17064.89076016 -.00000353  00000-0  00000-0 0  9994
2 29045   0.0347 282.2962 0002181  36.2910 297.9298  1.00269953 39788
ASTRA 1KR               
1 29055U 06012A   17065.22053094  .00000094  00000-0  00000+0 0  9996
2 29055   0.0812 279.0658 0003397  13.4424 330.1772  1.00272738 39758
GOES 13                 
1 29155U 06018A   17064.75253199 -.00000274  00000-0  00000+0 0  9999
2 29155   0.3947 272.7486 0004874 126.2554 321.0049  1.00267620 39523
EUTELSAT 113 WEST A     
1 29162U 06020A   17063.86166984 -.00000058  00000-0  00000-0 0  9997
2 29162   0.0352 303.8536 0003055  57.7143 358.4096  1.00271886 39471
THAICOM 5               
1 29163U 06020B   17065.00742701 -.00000146  00000-0  00000+0 0  9990
2 29163   0.0293 257.1640 0005259  67.6142 280.2780  1.00272856 39537
GALAXY 16 (G-16)        
1 29236U 06023A   17064.63191747 -.00000151  00000-0  00000+0 0  9996
2 29236   0.0380 238.6789 0002747  98.5051 314.8332  1.00272222 39268
EUTELSAT HOT BIRD 13B   
1 29270U 06032A   17065.28631812  .00000061  00000-0  00000+0 0  9997
2 29270   0.0850 322.5273 0005208  20.7257 296.9793  1.00271096 38863
JCSAT-3A                
1 29272U 06033A   17065.48404854 -.00000371  00000-0  00000+0 0  9991
2 29272   0.0183 150.5627 0002090 194.7057 121.3945  1.00268402 38779
SYRACUSE 3B             
1 29273U 06033B   17065.06006213 -.00000069  00000-0  00000+0 0  9997
2 29273   0.0185 133.5567 0005693 198.9894 207.8188  1.00271515 38759
KOREASAT 5 (MUGUNGWHA 5)
1 29349U 06034A   17065.48366740 -.00000384  00000-0  00000+0 0  9992
2 29349   0.0193 111.6862 0000637 223.5176 116.3483  1.00271480 38649
ZHONGXING-22A           
1 29398U 06038A   17064.94649150 -.00000342  00000-0  00000-0 0  9994
2 29398   5.6135  58.4012 0005555 236.3274 311.6000  1.00273330 38416
DIRECTV 9S              
1 29494U 06043A   17065.41436951 -.00000140  00000-0  00000+0 0  9998
2 29494   0.0155 133.1615 0003585 212.6028 226.6073  1.00271526 38116
OPTUS D1                
1 29495U 06043B   17064.88048530 -.00000135  00000-0  00000-0 0  9996
2 29495   0.0326 269.9840 0003577  70.9932 299.7724  1.00271492 38122
XM-4 (BLUES)            
1 29520U 06049A   17065.43927127 -.00000049  00000-0  00000+0 0  9994
2 29520   0.0180 331.7993 0000213   5.6331 229.7675  1.00271450 38007
BADR-4                  
1 29526U 06051A   17065.06080918  .00000120  00000-0  00000+0 0  9999
2 29526   0.0546 333.1447 0005938   0.4718 238.2217  1.00273144 37895
FENGYUN 2D              
1 29640U 06053A   17064.81846911 -.00000383  00000-0  10000-3 0  9990
2 29640   4.2610  64.8708 0004966 347.0496 169.9316  1.00282204 37562
WILDBLUE-1              
1 29643U 06054A   17064.60673226 -.00000072  00000-0  00000+0 0  9998
2 29643   0.0447 260.0162 0001697  77.8383 292.8996  1.00271474 37547
AMC-18                  
1 29644U 06054B   17065.47379750 -.00000115  00000-0  00000+0 0  9998
2 29644   0.0519 294.3223 0002820  43.4811 252.1763  1.00271596 37568
MEASAT-3                
1 29648U 06056A   17065.01673565 -.00000265  00000-0  00000+0 0  9991
2 29648   0.0272 159.1234 0000945 254.7689 207.5049  1.00266932 37563
INSAT-4B                
1 30793U 07007A   17064.95673105 -.00000282  00000-0  00000+0 0  9992
2 30793   0.0101 143.9506 0004365 262.1041 195.7081  1.00270566 36566
SKYNET 5A               
1 30794U 07007B   17064.83971882 -.00000295  00000-0  00000-0 0  9998
2 30794   0.0693  14.4364 0003358 335.0879 211.6941  1.00270661 36702
ANIK F3                 
1 31102U 07009A   17065.53551976 -.00000027  00000-0  00000+0 0  9992
2 31102   0.0153 157.6464 0002502 183.8318 257.0395  1.00270231 36345
ASTRA 1L                
1 31306U 07016A   17065.22053094  .00000094  00000-0  00000+0 0  9993
2 31306   0.0919 299.5640 0005097  23.4375 299.6793  1.00272255 36046
GALAXY 17 (G-17)        
1 31307U 07016B   17064.59701420 -.00000198  00000-0  00000+0 0  9992
2 31307   0.0334 359.2997 0003318 342.2883 305.8378  1.00269659 36073
ZHONGXING-6B            
1 31800U 07031A   17064.94700969 -.00000386  00000-0  00000+0 0  9992
2 31800   0.0199 144.0730 0003148 187.4001 288.8620  1.00270946 35471
